[{"OBJECT_NAME":"ONEWEB-0319","OBJECT_ID":"2021-075AG","EPOCH":"2026-03-09T20:22:25.542336","MEAN_MOTION":13.17649349,"ECCENTRICITY":0.00014603,"INCLINATION":87.9152,"RA_OF_ASC_NODE":25.5944,"ARG_OF_PERICENTER":65.9592,"MEAN_ANOMALY":294.1692,"EPHEMERIS_TYPE":0,"CLASSIFICATION_TYPE":"U","NORAD_CAT_ID":49105,"ELEMENT_SET_NO":999,"REV_AT_EPOCH":22052,"BSTAR":-9.5675641e-5,"MEAN_MOTION_DOT":-2.4e-7,"MEAN_MOTION_DDOT":0},{"OBJECT_NAME":"BREEZE-M DEB [TANK]","OBJECT_ID":"2012-007C","EPOCH":"2026-03-08T12:22:17.460768","MEAN_MOTION":5.6976166,"ECCENTRICITY":0.49373378,"INCLINATION":49.5897,"RA_OF_ASC_NODE":91.1175,"ARG_OF_PERICENTER":54.4791,"MEAN_ANOMALY":342.266,"EPHEMERIS_TYPE":0,"CLASSIFICATION_TYPE":"U","NORAD_CAT_ID":38089,"ELEMENT_SET_NO":999,"REV_AT_EPOCH":28330,"BSTAR":0.0009491653,"MEAN_MOTION_DOT":4.146e-5,"MEAN_MOTION_DDOT":0}]
